TEVEL2-1                
1 63217U 25052H   26068.64782323  .00020683  00000+0  70600-3 0  9994
2 63217  97.3991 324.7682 0004767 104.8919 255.2849 15.30341923 54855
STARLINK-33815          
1 63497U 25071E   26068.47234660  .00018500  00000+0  63531-3 0  9992
2 63497  53.1584 141.1464 0001162  71.7777 288.3350 15.30192762 52736
